{
  "type": "FeatureCollection",
  "features": [
    {
      "type": "Feature",
      "properties": {
        "norad_id": 31225,
        "name": "FENGYUN 1C DEB",
        "group": "fengyun-1c-debris",
        "lat": 43.478594893315126,
        "lon": 55.6282919298771,
        "alt_km": 801.6563893224529,
        "timestamp": "2025-12-16T23:36:36.477764+00:00",
        "meta_object_name": "FENGYUN 1C DEB",
        "meta_object_id": "1999-025BLF",
        "meta_epoch": "2025-12-16T04:53:31.676640",
        "meta_mean_motion": 14.17877079,
        "meta_eccentricity": 0.0088042,
        "meta_inclination": 98.9902,
        "meta_ra_of_asc_node": 63.4727,
        "meta_arg_of_pericenter": 341.35,
        "meta_mean_anomaly": 43.217,
        "meta_ephemeris_type": 0,
        "meta_classification_type": "U",
        "meta_norad_cat_id": 31225,
        "meta_element_set_no": 999,
        "meta_rev_at_epoch": 95871,
        "meta_bstar": 0.0010189697,
        "meta_mean_motion_dot": 2.117e-05,
        "meta_mean_motion_ddot": 0,
        "tle_line1": "1 31225U 99025BLF 25350.20383885  .00002117  00000+0  10190-2 0  9993",
        "tle_line2": "2 31225  98.9902  63.4727 0088042 341.3500  43.2170 14.17877079958717"
      },
      "geometry": {
        "type": "Point",
        "coordinates": [
          55.6282919298771,
          43.478594893315126
        ]
      }
    },
    {
      "type": "Feature",
      "properties": {
        "norad_id": 31226,
        "name": "FENGYUN 1C DEB",
        "group": "fengyun-1c-debris",
        "lat": -19.00131513418554,
        "lon": -6.493651220038784,
        "alt_km": 891.8101683750019,
        "timestamp": "2025-12-16T23:36:36.477775+00:00",
        "meta_object_name": "FENGYUN 1C DEB",
        "meta_object_id": "1999-025BLG",
        "meta_epoch": "2025-12-14T17:50:24.019584",
        "meta_mean_motion": 14.266967,
        "meta_eccentricity": 0.01268976,
        "meta_inclination": 98.3502,
        "meta_ra_of_asc_node": 348.469,
        "meta_arg_of_pericenter": 190.0622,
        "meta_mean_anomaly": 169.8016,
        "meta_ephemeris_type": 0,
        "meta_classification_type": "U",
        "meta_norad_cat_id": 31226,
        "meta_element_set_no": 999,
        "meta_rev_at_epoch": 62082,
        "meta_bstar": 0.00040971439,
        "meta_mean_motion_dot": 1.037e-05,
        "meta_mean_motion_ddot": 0,
        "tle_line1": "1 31226U 99025BLG 25348.74333356  .00001037  00000+0  40971-3 0  9999",
        "tle_line2": "2 31226  98.3502 348.4690 0126897 190.0622 169.8016 14.26696700620820"
      },
      "geometry": {
        "type": "Point",
        "coordinates": [
          -6.493651220038784,
          -19.00131513418554
        ]
      }
    },
    {
      "type": "Feature",
      "properties": {
        "norad_id": 31228,
        "name": "FENGYUN 1C DEB",
        "group": "fengyun-1c-debris",
        "lat": 49.324847743629384,
        "lon": 93.3974250223686,
        "alt_km": 732.2766336972563,
        "timestamp": "2025-12-16T23:36:36.477785+00:00",
        "meta_object_name": "FENGYUN 1C DEB",
        "meta_object_id": "1999-025BLJ",
        "meta_epoch": "2025-12-15T17:04:24.909024",
        "meta_mean_motion": 14.36929528,
        "meta_eccentricity": 0.00793617,
        "meta_inclination": 98.8689,
        "meta_ra_of_asc_node": 261.6186,
        "meta_arg_of_pericenter": 77.3345,
        "meta_mean_anomaly": 313.6158,
        "meta_ephemeris_type": 0,
        "meta_classification_type": "U",
        "meta_norad_cat_id": 31228,
        "meta_element_set_no": 999,
        "meta_rev_at_epoch": 97612,
        "meta_bstar": 0.00041339852,
        "meta_mean_motion_dot": 1.222e-05,
        "meta_mean_motion_ddot": 0,
        "tle_line1": "1 31228U 99025BLJ 25349.71139941  .00001222  00000+0  41340-3 0  9990",
        "tle_line2": "2 31228  98.8689 261.6186 0079361  77.3345 313.6158 14.36929528976122"
      },
      "geometry": {
        "type": "Point",
        "coordinates": [
          93.3974250223686,
          49.324847743629384
        ]
      }
    },
    {
      "type": "Feature",
      "properties": {
        "norad_id": 31229,
        "name": "FENGYUN 1C DEB",
        "group": "fengyun-1c-debris",
        "lat": 54.74942956717288,
        "lon": 53.55258117865883,
        "alt_km": 839.155798123671,
        "timestamp": "2025-12-16T23:36:36.477796+00:00",
        "meta_object_name": "FENGYUN 1C DEB",
        "meta_object_id": "1999-025BLK",
        "meta_epoch": "2025-12-15T15:15:33.166656",
        "meta_mean_motion": 14.2183845,
        "meta_eccentricity": 0.00532694,
        "meta_inclination": 98.8682,
        "meta_ra_of_asc_node": 64.9605,
        "meta_arg_of_pericenter": 288.2219,
        "meta_mean_anomaly": 71.3165,
        "meta_ephemeris_type": 0,
        "meta_classification_type": "U",
        "meta_norad_cat_id": 31229,
        "meta_element_set_no": 999,
        "meta_rev_at_epoch": 96125,
        "meta_bstar": 0.0011241879,
        "meta_mean_motion_dot": 2.467e-05,
        "meta_mean_motion_ddot": 0,
        "tle_line1": "1 31229U 99025BLK 25349.63580054  .00002467  00000+0  11242-2 0  9996",
        "tle_line2": "2 31229  98.8682  64.9605 0053269 288.2219  71.3165 14.21838450961259"
      },
      "geometry": {
        "type": "Point",
        "coordinates": [
          53.55258117865883,
          54.74942956717288
        ]
      }
    },
    {
      "type": "Feature",
      "properties": {
        "norad_id": 31231,
        "name": "FENGYUN 1C DEB",
        "group": "fengyun-1c-debris",
        "lat": 5.906981812340288,
        "lon": -28.545835667137435,
        "alt_km": 627.3078626198585,
        "timestamp": "2025-12-16T23:36:36.477806+00:00",
        "meta_object_name": "FENGYUN 1C DEB",
        "meta_object_id": "1999-025BLM",
        "meta_epoch": "2025-12-15T04:31:52.176576",
        "meta_mean_motion": 14.75732437,
        "meta_eccentricity": 0.01455115,
        "meta_inclination": 98.8603,
        "meta_ra_of_asc_node": 148.5632,
        "meta_arg_of_pericenter": 98.5999,
        "meta_mean_anomaly": 263.1725,
        "meta_ephemeris_type": 0,
        "meta_classification_type": "U",
        "meta_norad_cat_id": 31231,
        "meta_element_set_no": 999,
        "meta_rev_at_epoch": 63057,
        "meta_bstar": 0.0017470696,
        "meta_mean_motion_dot": 0.00014172,
        "meta_mean_motion_ddot": 0,
        "tle_line1": "1 31231U 99025BLM 25349.18879834  .00014172  00000+0  17471-2 0  9992",
        "tle_line2": "2 31231  98.8603 148.5632 0145511  98.5999 263.1725 14.75732437630571"
      },
      "geometry": {
        "type": "Point",
        "coordinates": [
          -28.545835667137435,
          5.906981812340288
        ]
      }
    },
    {
      "type": "Feature",
      "properties": {
        "norad_id": 31234,
        "name": "FENGYUN 1C DEB",
        "group": "fengyun-1c-debris",
        "lat": 10.504884928483172,
        "lon": 166.5177935780259,
        "alt_km": 830.2517263060081,
        "timestamp": "2025-12-16T23:36:36.477816+00:00",
        "meta_object_name": "FENGYUN 1C DEB",
        "meta_object_id": "1999-025BLQ",
        "meta_epoch": "2025-12-15T17:48:38.064672",
        "meta_mean_motion": 14.08019353,
        "meta_eccentricity": 0.00731869,
        "meta_inclination": 98.7845,
        "meta_ra_of_asc_node": 343.6665,
        "meta_arg_of_pericenter": 218.2993,
        "meta_mean_anomaly": 141.2966,
        "meta_ephemeris_type": 0,
        "meta_classification_type": "U",
        "meta_norad_cat_id": 31234,
        "meta_element_set_no": 999,
        "meta_rev_at_epoch": 72762,
        "meta_bstar": 0.00018743771,
        "meta_mean_motion_dot": 2.83e-06,
        "meta_mean_motion_ddot": 0,
        "tle_line1": "1 31234U 99025BLQ 25349.74210723  .00000283  00000+0  18744-3 0  9996",
        "tle_line2": "2 31234  98.7845 343.6665 0073186 218.2993 141.2966 14.08019353727625"
      },
      "geometry": {
        "type": "Point",
        "coordinates": [
          166.5177935780259,
          10.504884928483172
        ]
      }
    },
    {
      "type": "Feature",
      "properties": {
        "norad_id": 31235,
        "name": "FENGYUN 1C DEB",
        "group": "fengyun-1c-debris",
        "lat": -45.49391670647773,
        "lon": 147.78034017235453,
        "alt_km": 762.1131362864262,
        "timestamp": "2025-12-16T23:36:36.477827+00:00",
        "meta_object_name": "FENGYUN 1C DEB",
        "meta_object_id": "1999-025BLR",
        "meta_epoch": "2025-12-14T15:57:46.708416",
        "meta_mean_motion": 14.18646746,
        "meta_eccentricity": 0.01796863,
        "meta_inclination": 98.4679,
        "meta_ra_of_asc_node": 136.8475,
        "meta_arg_of_pericenter": 16.4249,
        "meta_mean_anomaly": 344.2647,
        "meta_ephemeris_type": 0,
        "meta_classification_type": "U",
        "meta_norad_cat_id": 31235,
        "meta_element_set_no": 999,
        "meta_rev_at_epoch": 63194,
        "meta_bstar": 0.002392139,
        "meta_mean_motion_dot": 5.783e-05,
        "meta_mean_motion_ddot": 0,
        "tle_line1": "1 31235U 99025BLR 25348.66512394  .00005783  00000+0  23921-2 0  9998",
        "tle_line2": "2 31235  98.4679 136.8475 0179686  16.4249 344.2647 14.18646746631946"
      },
      "geometry": {
        "type": "Point",
        "coordinates": [
          147.78034017235453,
          -45.49391670647773
        ]
      }
    }
  ]
}